{
  "type": "FeatureCollection",
  "features": [
    {
      "type": "Feature",
      "geometry": {
        "type": "Polygon",
        "coordinates": [
          [
            [
              13.041067,
              61.79349213
            ],
            [
              13.04205946,
              61.79321185
            ],
            [
              13.04260571,
              61.79142483
            ],
            [
              13.0398451,
              61.790512
            ],
            [
              13.03837191,
              61.79080671
            ],
            [
              13.03764395,
              61.79071967
            ],
            [
              13.03733686,
              61.79098745
            ],
            [
              13.03634102,
              61.79072033
            ],
            [
              13.03573338,
              61.79097561
            ],
            [
              13.03669041,
              61.79132481
            ],
            [
              13.03623234,
              61.7917815
            ],
            [
              13.03667953,
              61.792149
            ],
            [
              13.03633328,
              61.79222369
            ],
            [
              13.03434523,
              61.7913795
            ],
            [
              13.03473676,
              61.79094183
            ],
            [
              13.03477207,
              61.7909474
            ],
            [
              13.03502403,
              61.79095269
            ],
            [
              13.03521119,
              61.79098958
            ],
            [
              13.03542941,
              61.79098541
            ],
            [
              13.03560816,
              61.79095975
            ],
            [
              13.03558503,
              61.79084072
            ],
            [
              13.03430597,
              61.79075928
            ],
            [
              13.0343619,
              61.79037062
            ],
            [
              13.0349477,
              61.79027199
            ],
            [
              13.03464481,
              61.7898296
            ],
            [
              13.0347135,
              61.78960178
            ],
            [
              13.0337336,
              61.78929967
            ],
            [
              13.03291498,
              61.78937884
            ],
            [
              13.03289715,
              61.78966697
            ],
            [
              13.03153586,
              61.78968298
            ],
            [
              13.03149305,
              61.7890859
            ],
            [
              13.03087764,
              61.78827959
            ],
            [
              13.02954664,
              61.78754256
            ],
            [
              13.02955498,
              61.78698314
            ],
            [
              13.0302316,
              61.78621304
            ],
            [
              13.03067422,
              61.78535363
            ],
            [
              13.02995763,
              61.78506162
            ],
            [
              13.02902927,
              61.78410196
            ],
            [
              13.02882055,
              61.78365661
            ],
            [
              13.0285474,
              61.78341179
            ],
            [
              13.02546639,
              61.78589305
            ],
            [
              13.02442543,
              61.78566283
            ],
            [
              13.02273374,
              61.78544485
            ],
            [
              13.02150687,
              61.78513467
            ],
            [
              13.02050962,
              61.78604028
            ],
            [
              13.01979866,
              61.78707234
            ],
            [
              13.01918245,
              61.78759407
            ],
            [
              13.01831851,
              61.78908821
            ],
            [
              13.01947871,
              61.78995413
            ],
            [
              13.01894523,
              61.79102622
            ],
            [
              13.01898198,
              61.79305274
            ],
            [
              13.01899352,
              61.79358611
            ],
            [
              13.01910585,
              61.79410187
            ],
            [
              13.01952656,
              61.79424404
            ],
            [
              13.01950294,
              61.79433385
            ],
            [
              13.0199458,
              61.79441267
            ],
            [
              13.01963178,
              61.79490098
            ],
            [
              13.01980538,
              61.79492841
            ],
            [
              13.02012243,
              61.79500925
            ],
            [
              13.02186152,
              61.79591136
            ],
            [
              13.02220932,
              61.79609237
            ],
            [
              13.02241436,
              61.79618038
            ],
            [
              13.0228468,
              61.79629807
            ],
            [
              13.02329312,
              61.7963925
            ],
            [
              13.02461954,
              61.79667852
            ],
            [
              13.02518146,
              61.79680686
            ],
            [
              13.02561044,
              61.79692147
            ],
            [
              13.02876869,
              61.79715014
            ],
            [
              13.02949681,
              61.79697364
            ],
            [
              13.02858093,
              61.79649305
            ],
            [
              13.02789933,
              61.79585255
            ],
            [
              13.0272192,
              61.79564306
            ],
            [
              13.0265647,
              61.79490868
            ],
            [
              13.02673411,
              61.79458366
            ],
            [
              13.02833885,
              61.79452698
            ],
            [
              13.02765711,
              61.7939503
            ],
            [
              13.02683878,
              61.79392761
            ],
            [
              13.02772673,
              61.79211753
            ],
            [
              13.02936921,
              61.79227839
            ],
            [
              13.0297366,
              61.79257718
            ],
            [
              13.03000101,
              61.79232406
            ],
            [
              13.03032392,
              61.7924192
            ],
            [
              13.03046517,
              61.79280373
            ],
            [
              13.03154773,
              61.79312027
            ],
            [
              13.03307096,
              61.7931206
            ],
            [
              13.03326762,
              61.79387911
            ],
            [
              13.0340295,
              61.79400191
            ],
            [
              13.03392486,
              61.7941517
            ],
            [
              13.03469471,
              61.7944171
            ],
            [
              13.03479201,
              61.79488126
            ],
            [
              13.03394378,
              61.79521787
            ],
            [
              13.03374579,
              61.79576264
            ],
            [
              13.03262437,
              61.79613528
            ],
            [
              13.03116766,
              61.79621583
            ],
            [
              13.0309103,
              61.79638186
            ],
            [
              13.0314235,
              61.79676103
            ],
            [
              13.03100802,
              61.79701476
            ],
            [
              13.031802,
              61.79748461
            ],
            [
              13.03097662,
              61.79783187
            ],
            [
              13.03136231,
              61.79816404
            ],
            [
              13.03164479,
              61.79834298
            ],
            [
              13.03218307,
              61.79859315
            ],
            [
              13.03326693,
              61.79925852
            ],
            [
              13.03562547,
              61.79838945
            ],
            [
              13.03594878,
              61.79764653
            ],
            [
              13.03939911,
              61.79703595
            ],
            [
              13.04109378,
              61.79555132
            ],
            [
              13.04122179,
              61.79503759
            ],
            [
              13.041067,
              61.79349213
            ]
          ]
        ]
      },
      "properties": {
        "feature_type": "beslut",
        "id": "BESLUT-166876",
        "soid": "NVR-2048018",
        "gid": 76521,
        "namn": "Ögan",
        "typ": "NR",
        "status": "GALLANDE",
        "area_ha": 107.34,
        "beslut_dat": "2018-04-13",
        "lagakr_dat": "2018-05-23",
        "status_dbt": null,
        "_source_file": "Uppdragsgeometri (NVR-2048018, beslut 2018-04-13)",
        "beslmyndig": "Länsstyrelsen i Dalarnas län",
        "forvaltare": "Länsstyrelsen i Dalarnas län",
        "geo_status": "Slutligt inmätt",
        "a_foresk": "Enligt 7 kap. 5 § andra stycket miljöbalken är det förbjudet att bedriva skogsbruk, plocka, gräva upp, skada eller ta bort kärlväxter, mossor, lavar och svampar, samla in ryggradslösa djur, störa eller skada fågellivet eller fångst och jakt.",
        "b_foresk": "Enligt 7 kap. 6 § miljöbalken är det förbjudet att anlägga nya vägar, parkeringsplatser eller upplag, bygga nya anläggningar eller konstruktioner, ta upp nya diken eller täckdiken, utföra markarbeten som kan påverka hydrologi eller topografi.",
        "c_foresk": "Länsstyrelsen får meddela dispens från föreskrifterna i 3 § A och 4 § A om det finns synnerliga skäl och om syftet med reservatets inrättande inte motverkas. Dispens söks skriftligen hos Länsstyrelsen.",
        "undantag": "Bestämmelserna i 3 § A punkt 1 gäller inte för markägare vid brukande av fastighetens tomtmark. Bestämmelserna i 3 § A punkt 2 gäller inte för sedvanlig rörfiske. Bestämmelserna i 4 § A gäller inte för underhåll av befintliga vägar."
      }
    },
    {
      "type": "Feature",
      "geometry": {
        "type": "Polygon",
        "coordinates": [
          [
            [
              21.78960714,
              66.86519309
            ],
            [
              21.78949626,
              66.86540046
            ],
            [
              21.78922665,
              66.86566541
            ],
            [
              21.78917094,
              66.86590489
            ],
            [
              21.7889296,
              66.86613286
            ],
            [
              21.78909639,
              66.86642575
            ],
            [
              21.79422569,
              66.86713554
            ],
            [
              21.7952333,
              66.86659691
            ],
            [
              21.79765457,
              66.86530249
            ],
            [
              21.79733134,
              66.86520408
            ],
            [
              21.79705967,
              66.86512136
            ],
            [
              21.79679935,
              66.86504211
            ],
            [
              21.79644585,
              66.86493447
            ],
            [
              21.79595865,
              66.86480823
            ],
            [
              21.80002837,
              66.8609555
            ],
            [
              21.79803399,
              66.86176664
            ],
            [
              21.78960714,
              66.86519309
            ]
          ]
        ]
      },
      "properties": {
        "feature_type": "beslut",
        "id": "BESLUT-2201800",
        "soid": "NVR-2201202",
        "gid": 89759,
        "namn": "sm-test-06-10",
        "typ": "NR",
        "status": "GALLANDE",
        "area_ha": 11.96,
        "beslut_dat": "2026-06-10",
        "lagakr_dat": "2026-06-10",
        "status_dbt": null,
        "_source_file": "Beslut_BESLUT-2201800"
      }
    },
    {
      "type": "Feature",
      "geometry": {
        "type": "Polygon",
        "coordinates": [
          [
            [
              17.24695271,
              66.139686
            ],
            [
              17.24546332,
              66.1393188
            ],
            [
              17.24394696,
              66.13939445
            ],
            [
              17.24244005,
              66.1395772
            ],
            [
              17.24161334,
              66.13958919
            ],
            [
              17.24103114,
              66.13974512
            ],
            [
              17.24134769,
              66.13995506
            ],
            [
              17.24223588,
              66.14026399
            ],
            [
              17.24207182,
              66.14065521
            ],
            [
              17.24213803,
              66.14102967
            ],
            [
              17.24280891,
              66.14112722
            ],
            [
              17.24411986,
              66.14097411
            ],
            [
              17.24549113,
              66.14112851
            ],
            [
              17.24661923,
              66.14152778
            ],
            [
              17.2476256,
              66.14167406
            ],
            [
              17.24829632,
              66.14139614
            ],
            [
              17.24849693,
              66.14104461
            ],
            [
              17.24797341,
              66.14042993
            ],
            [
              17.24695271,
              66.139686
            ]
          ]
        ]
      },
      "properties": {
        "feature_type": "beslut",
        "id": "BESLUT-2201794",
        "soid": "NVR-2201198",
        "gid": 89756,
        "namn": "Första reservatet",
        "typ": "NR",
        "status": "GALLANDE",
        "area_ha": 5.3,
        "beslut_dat": "2026-06-08",
        "lagakr_dat": "2026-06-08",
        "status_dbt": null,
        "_source_file": "Beslut_BESLUT-2201794"
      }
    },
    {
      "type": "Feature",
      "geometry": {
        "type": "Polygon",
        "coordinates": [
          [
            [
              21.17134802,
              66.32130209
            ],
            [
              21.16397332,
              66.32426285
            ],
            [
              21.14386708,
              66.33232932
            ],
            [
              21.1436403,
              66.33242012
            ],
            [
              21.16612202,
              66.3343152
            ],
            [
              21.18271368,
              66.33571154
            ],
            [
              21.21890029,
              66.33868846
            ],
            [
              21.22291301,
              66.33431393
            ],
            [
              21.23725652,
              66.31866386
            ],
            [
              21.17134802,
              66.32130209
            ]
          ],
          [
            [
              21.20695735,
              66.33296907
            ],
            [
              21.20783783,
              66.33255267
            ],
            [
              21.20886437,
              66.33250154
            ],
            [
              21.20903662,
              66.33255703
            ],
            [
              21.20889106,
              66.33271979
            ],
            [
              21.20868451,
              66.33297794
            ],
            [
              21.20613422,
              66.33371052
            ],
            [
              21.20563407,
              66.33345007
            ],
            [
              21.20616987,
              66.333228
            ],
            [
              21.20695735,
              66.33296907
            ]
          ],
          [
            [
              21.20527545,
              66.32459229
            ],
            [
              21.20694746,
              66.32455266
            ],
            [
              21.20764842,
              66.32487845
            ],
            [
              21.20724016,
              66.32506766
            ],
            [
              21.20619095,
              66.32513748
            ],
            [
              21.20579258,
              66.32524376
            ],
            [
              21.20548738,
              66.32536856
            ],
            [
              21.20532743,
              66.32541683
            ],
            [
              21.20495902,
              66.32540718
            ],
            [
              21.20464115,
              66.32533841
            ],
            [
              21.2044486,
              66.32518297
            ],
            [
              21.20527545,
              66.32459229
            ]
          ]
        ]
      },
      "properties": {
        "feature_type": "beslut",
        "id": "BESLUT-2201747",
        "soid": "NVR-2201159",
        "gid": 89776,
        "namn": "1",
        "typ": "NR",
        "status": "GALLANDE",
        "area_ha": 569.86,
        "beslut_dat": "2026-05-21",
        "lagakr_dat": "2026-05-21",
        "status_dbt": null,
        "_source_file": "Uppdragsgeometri (NVR-2201159, beslut 2026-05-21)"
      }
    },
    {
      "type": "Feature",
      "geometry": {
        "type": "Polygon",
        "coordinates": [
          [
            [
              22.65066352,
              65.92685553
            ],
            [
              22.65049399,
              65.92675411
            ],
            [
              22.65026027,
              65.92674653
            ],
            [
              22.64995371,
              65.92653949
            ],
            [
              22.64994003,
              65.92653351
            ],
            [
              22.64984885,
              65.92649376
            ],
            [
              22.64982859,
              65.92648493
            ],
            [
              22.64977564,
              65.92646184
            ],
            [
              22.64934848,
              65.9262782
            ],
            [
              22.64896029,
              65.92636314
            ],
            [
              22.64881274,
              65.92630667
            ],
            [
              22.64866955,
              65.92625318
            ],
            [
              22.64843568,
              65.92616583
            ],
            [
              22.64840108,
              65.92610881
            ],
            [
              22.64828184,
              65.92609612
            ],
            [
              22.64813035,
              65.92596323
            ],
            [
              22.64814392,
              65.92592827
            ],
            [
              22.64815502,
              65.9258856
            ],
            [
              22.64821536,
              65.92565306
            ],
            [
              22.64847944,
              65.92532135
            ],
            [
              22.64846992,
              65.92517311
            ],
            [
              22.64816805,
              65.92495232
            ],
            [
              22.64844444,
              65.92487233
            ],
            [
              22.64849661,
              65.9247889
            ],
            [
              22.64833608,
              65.92460238
            ],
            [
              22.64835514,
              65.9245159
            ],
            [
              22.64835419,
              65.92451223
            ],
            [
              22.64834518,
              65.9244776
            ],
            [
              22.64839607,
              65.92432042
            ],
            [
              22.6483711,
              65.92415572
            ],
            [
              22.64833475,
              65.9241009
            ],
            [
              22.64827416,
              65.92403534
            ],
            [
              22.64822614,
              65.92398639
            ],
            [
              22.64803551,
              65.92372997
            ],
            [
              22.6479005,
              65.92358111
            ],
            [
              22.64754283,
              65.9233319
            ],
            [
              22.64748255,
              65.92326999
            ],
            [
              22.64745131,
              65.92322127
            ],
            [
              22.64740214,
              65.92314463
            ],
            [
              22.64738933,
              65.92308244
            ],
            [
              22.64726011,
              65.92299172
            ],
            [
              22.64709516,
              65.92298242
            ],
            [
              22.64669224,
              65.92294819
            ],
            [
              22.64636683,
              65.92287466
            ],
            [
              22.6458731,
              65.92265807
            ],
            [
              22.64556373,
              65.92252237
            ],
            [
              22.64532287,
              65.9224167
            ],
            [
              22.64509638,
              65.9223232
            ],
            [
              22.64469992,
              65.92216065
            ],
            [
              22.64465723,
              65.92213555
            ],
            [
              22.64456956,
              65.92211696
            ],
            [
              22.64445009,
              65.92211326
            ],
            [
              22.64435561,
              65.92209045
            ],
            [
              22.64432874,
              65.92201055
            ],
            [
              22.64430939,
              65.92199818
            ],
            [
              22.64430827,
              65.92199747
            ],
            [
              22.6441667,
              65.92188526
            ],
            [
              22.64383654,
              65.92185931
            ],
            [
              22.6432089,
              65.92175158
            ],
            [
              22.64317705,
              65.9217281
            ],
            [
              22.6408053,
              65.92170956
            ],
            [
              22.64073107,
              65.9219011
            ],
            [
              22.64062158,
              65.9219871
            ],
            [
              22.64063359,
              65.92203157
            ],
            [
              22.64072666,
              65.92209052
            ],
            [
              22.64075987,
              65.92211159
            ],
            [
              22.6407908,
              65.92215524
            ],
            [
              22.64070346,
              65.92223539
            ],
            [
              22.64069776,
              65.9222405
            ],
            [
              22.64067806,
              65.92233154
            ],
            [
              22.64055863,
              65.92239994
            ],
            [
              22.64051107,
              65.92242911
            ],
            [
              22.64048643,
              65.92247073
            ],
            [
              22.64053725,
              65.92256756
            ],
            [
              22.64053312,
              65.92264433
            ],
            [
              22.64039893,
              65.92277202
            ],
            [
              22.64037368,
              65.92297587
            ],
            [
              22.64030245,
              65.92327644
            ],
            [
              22.64031944,
              65.92337023
            ],
            [
              22.64040054,
              65.92345673
            ],
            [
              22.64105029,
              65.92379268
            ],
            [
              22.64116304,
              65.92394536
            ],
            [
              22.64126896,
              65.92409382
            ],
            [
              22.64169058,
              65.92423716
            ],
            [
              22.64233955,
              65.92445589
            ],
            [
              22.64238896,
              65.9245168
            ],
            [
              22.64508187,
              65.92457216
            ],
            [
              22.64693495,
              65.92667898
            ],
            [
              22.64805091,
              65.92741202
            ],
            [
              22.65066352,
              65.92685553
            ]
          ]
        ]
      },
      "properties": {
        "feature_type": "beslut",
        "id": "BESLUT-2201722",
        "soid": "NVR-2201139",
        "gid": 89770,
        "namn": "123451",
        "typ": "NR",
        "status": "UTKAST",
        "area_ha": 12.04,
        "beslut_dat": "2026-04-24",
        "lagakr_dat": null,
        "status_dbt": null,
        "_source_file": "Uppdragsgeometri (NVR-2201139, beslut 2026-04-24)"
      }
    },
    {
      "type": "Feature",
      "geometry": {
        "type": "Polygon",
        "coordinates": [
          [
            [
              21.64000197,
              66.26112784
            ],
            [
              21.64164667,
              66.26073822
            ],
            [
              21.64224964,
              66.26155458
            ],
            [
              21.64295758,
              66.26152682
            ],
            [
              21.64434235,
              66.26235791
            ],
            [
              21.64500122,
              66.2622322
            ],
            [
              21.64755512,
              66.26268866
            ],
            [
              21.64796713,
              66.2625224
            ],
            [
              21.64752689,
              66.26223422
            ],
            [
              21.64950681,
              66.26158248
            ],
            [
              21.65076676,
              66.26151519
            ],
            [
              21.65072322,
              66.26080517
            ],
            [
              21.64934729,
              66.26067043
            ],
            [
              21.64780816,
              66.26089719
            ],
            [
              21.64683308,
              66.26133701
            ],
            [
              21.64550943,
              66.26030558
            ],
            [
              21.64476658,
              66.25999455
            ],
            [
              21.64661968,
              66.25905701
            ],
            [
              21.64595248,
              66.25857758
            ],
            [
              21.64288034,
              66.25806899
            ],
            [
              21.64233306,
              66.2573447
            ],
            [
              21.64415145,
              66.25603406
            ],
            [
              21.64729781,
              66.25634339
            ],
            [
              21.65078715,
              66.25543801
            ],
            [
              21.65250265,
              66.25594462
            ],
            [
              21.65658442,
              66.25633169
            ],
            [
              21.65754549,
              66.25597309
            ],
            [
              21.65638797,
              66.25530912
            ],
            [
              21.65606176,
              66.2544441
            ],
            [
              21.65789525,
              66.25407577
            ],
            [
              21.65748585,
              66.25372846
            ],
            [
              21.65841768,
              66.25314866
            ],
            [
              21.65907651,
              66.25248407
            ],
            [
              21.65889985,
              66.25219685
            ],
            [
              21.65781371,
              66.25190122
            ],
            [
              21.65763419,
              66.25159247
            ],
            [
              21.6567755,
              66.25139528
            ],
            [
              21.66010949,
              66.24991632
            ],
            [
              21.66165391,
              66.2506495
            ],
            [
              21.66286043,
              66.25103153
            ],
            [
              21.66335012,
              66.25136267
            ],
            [
              21.66189255,
              66.25184308
            ],
            [
              21.66507196,
              66.25239573
            ],
            [
              21.66513544,
              66.25275749
            ],
            [
              21.66624922,
              66.25298457
            ],
            [
              21.66649358,
              66.25338734
            ],
            [
              21.66802537,
              66.25374385
            ],
            [
              21.66978467,
              66.25289783
            ],
            [
              21.66869199,
              66.25181626
            ],
            [
              21.67054677,
              66.25177455
            ],
            [
              21.66901788,
              66.2512133
            ],
            [
              21.66843347,
              66.25061957
            ],
            [
              21.67108979,
              66.24992429
            ],
            [
              21.67285004,
              66.25030824
            ],
            [
              21.67429462,
              66.25023547
            ],
            [
              21.67494382,
              66.25051031
            ],
            [
              21.68041137,
              66.2493381
            ],
            [
              21.68144995,
              66.24840619
            ],
            [
              21.67937697,
              66.24780887
            ],
            [
              21.67813811,
              66.24822565
            ],
            [
              21.67664989,
              66.24721796
            ],
            [
              21.67839105,
              66.24675308
            ],
            [
              21.68481251,
              66.24707511
            ],
            [
              21.68703782,
              66.24606962
            ],
            [
              21.68727096,
              66.24442962
            ],
            [
              21.68745921,
              66.24308413
            ],
            [
              21.68481272,
              66.24216875
            ],
            [
              21.68160889,
              66.24105932
            ],
            [
              21.67847134,
              66.24159315
            ],
            [
              21.67470618,
              66.24365231
            ],
            [
              21.67168619,
              66.24470093
            ],
            [
              21.67091408,
              66.24609942
            ],
            [
              21.66823757,
              66.24711318
            ],
            [
              21.66764715,
              66.24822239
            ],
            [
              21.6642492,
              66.24620608
            ],
            [
              21.66259919,
              66.2450153
            ],
            [
              21.66105133,
              66.24401403
            ],
            [
              21.65812717,
              66.24497533
            ],
            [
              21.66000954,
              66.24547155
            ],
            [
              21.65915315,
              66.24573716
            ],
            [
              21.65852297,
              66.2467587
            ],
            [
              21.65865652,
              66.24778352
            ],
            [
              21.65714957,
              66.24794353
            ],
            [
              21.65507545,
              66.24773168
            ],
            [
              21.6543625,
              66.24687126
            ],
            [
              21.65059962,
              66.24610492
            ],
            [
              21.65151786,
              66.24710856
            ],
            [
              21.64831879,
              66.24840461
            ],
            [
              21.64510949,
              66.24971208
            ],
            [
              21.64316603,
              66.25066478
            ],
            [
              21.6434931,
              66.25136319
            ],
            [
              21.64115217,
              66.25204656
            ],
            [
              21.63983824,
              66.25138903
            ],
            [
              21.6383873,
              66.25185772
            ],
            [
              21.63698163,
              66.25316746
            ],
            [
              21.63546862,
              66.25243146
            ],
            [
              21.63556873,
              66.25189276
            ],
            [
              21.63512338,
              66.25165437
            ],
            [
              21.63367534,
              66.25196587
            ],
            [
              21.63291939,
              66.25173157
            ],
            [
              21.63338298,
              66.25111458
            ],
            [
              21.6318645,
              66.25082458
            ],
            [
              21.63182742,
              66.2502285
            ],
            [
              21.63354484,
              66.24885231
            ],
            [
              21.63614433,
              66.24774033
            ],
            [
              21.63262149,
              66.24753928
            ],
            [
              21.63328418,
              66.24626982
            ],
            [
              21.63020803,
              66.24593544
            ],
            [
              21.63173701,
              66.2438475
            ],
            [
              21.62987387,
              66.24287009
            ],
            [
              21.63012444,
              66.24194489
            ],
            [
              21.63271009,
              66.23994545
            ],
            [
              21.635273,
              66.23816716
            ],
            [
              21.63708875,
              66.23695139
            ],
            [
              21.63711688,
              66.23644172
            ],
            [
              21.63908407,
              66.23571328
            ],
            [
              21.64085653,
              66.23480094
            ],
            [
              21.6424012,
              66.2346315
            ],
            [
              21.6430896,
              66.23408127
            ],
            [
              21.64013637,
              66.2327377
            ],
            [
              21.63672444,
              66.23461464
            ],
            [
              21.63468663,
              66.23481276
            ],
            [
              21.63264537,
              66.23610118
            ],
            [
              21.63225783,
              66.23661697
            ],
            [
              21.63144357,
              66.2369999
            ],
            [
              21.62926674,
              66.23696117
            ],
            [
              21.62728684,
              66.23772561
            ],
            [
              21.62759667,
              66.2388485
            ],
            [
              21.62490871,
              66.23984823
            ],
            [
              21.6238754,
              66.23955709
            ],
            [
              21.62052012,
              66.24081664
            ],
            [
              21.62095745,
              66.24295408
            ],
            [
              21.62134175,
              66.24476485
            ],
            [
              21.61930081,
              66.24612589
            ],
            [
              21.61273358,
              66.24806155
            ],
            [
              21.60902893,
              66.24973374
            ],
            [
              21.60533843,
              66.25140728
            ],
            [
              21.60217874,
              66.25283731
            ],
            [
              21.59860085,
              66.25522526
            ],
            [
              21.59514047,
              66.25754509
            ],
            [
              21.59585403,
              66.26049519
            ],
            [
              21.59543626,
              66.26085782
            ],
            [
              21.59666155,
              66.26214596
            ],
            [
              21.5960316,
              66.26299161
            ],
            [
              21.59768452,
              66.26389641
            ],
            [
              21.59941866,
              66.26171656
            ],
            [
              21.6011488,
              66.26100784
            ],
            [
              21.60589493,
              66.26144655
            ],
            [
              21.61004008,
              66.26019826
            ],
            [
              21.60949921,
              66.25875761
            ],
            [
              21.61098042,
              66.25761305
            ],
            [
              21.61224418,
              66.25721671
            ],
            [
              21.61438023,
              66.25602664
            ],
            [
              21.61644244,
              66.25595697
            ],
            [
              21.61835972,
              66.25463091
            ],
            [
              21.6183077,
              66.25405979
            ],
            [
              21.62021728,
              66.25307577
            ],
            [
              21.62512478,
              66.25155152
            ],
            [
              21.62559578,
              66.25204402
            ],
            [
              21.62475964,
              66.25249065
            ],
            [
              21.62779533,
              66.25418026
            ],
            [
              21.62717232,
              66.25444965
            ],
            [
              21.62724308,
              66.25462655
            ],
            [
              21.626676,
              66.25496564
            ],
            [
              21.62619385,
              66.25493359
            ],
            [
              21.6254929,
              66.2552019
            ],
            [
              21.6245392,
              66.25554782
            ],
            [
              21.62378131,
              66.25579939
            ],
            [
              21.62286556,
              66.25612198
            ],
            [
              21.62221185,
              66.25636592
            ],
            [
              21.62140018,
              66.25680506
            ],
            [
              21.62326976,
              66.25662248
            ],
            [
              21.62440221,
              66.2562855
            ],
            [
              21.62844201,
              66.25665391
            ],
            [
              21.62875162,
              66.25761493
            ],
            [
              21.63271735,
              66.25790475
            ],
            [
              21.63365423,
              66.25797569
            ],
            [
              21.63264652,
              66.25882876
            ],
            [
              21.63401196,
              66.25946005
            ],
            [
              21.63485672,
              66.26082506
            ],
            [
              21.63393008,
              66.26175217
            ],
            [
              21.63666345,
              66.26321555
            ],
            [
              21.63992054,
              66.26244547
            ],
            [
              21.64057382,
              66.26163962
            ],
            [
              21.64000197,
              66.26112784
            ]
          ]
        ]
      },
      "properties": {
        "feature_type": "beslut",
        "id": "BESLUT-170501",
        "soid": "NVR-2044072",
        "gid": 68973,
        "namn": "Abborrtjärnbergshuvudet",
        "typ": "NR",
        "status": "GALLANDE",
        "area_ha": 417.38,
        "beslut_dat": "2019-11-26",
        "lagakr_dat": "2019-12-20",
        "status_dbt": null,
        "_source_file": "Uppdragsgeometri (NVR-2044072, beslut 2019-11-26)"
      }
    },
    {
      "type": "Feature",
      "geometry": {
        "type": "Polygon",
        "coordinates": [
          [
            [
              21.92185151,
              66.05594352
            ],
            [
              21.92279285,
              66.05508552
            ],
            [
              21.92121188,
              66.05469045
            ],
            [
              21.91944914,
              66.05500258
            ],
            [
              21.91763406,
              66.05565289
            ],
            [
              21.91658989,
              66.05554927
            ],
            [
              21.91727974,
              66.05430468
            ],
            [
              21.91549607,
              66.05406567
            ],
            [
              21.9150895,
              66.05437073
            ],
            [
              21.91369566,
              66.05433357
            ],
            [
              21.91351481,
              66.05524877
            ],
            [
              21.91249858,
              66.05556561
            ],
            [
              21.91202828,
              66.05554685
            ],
            [
              21.91269771,
              66.05397694
            ],
            [
              21.91385679,
              66.05346941
            ],
            [
              21.91369427,
              66.05235749
            ],
            [
              21.91466107,
              66.05199448
            ],
            [
              21.91384402,
              66.0509657
            ],
            [
              21.9125362,
              66.05086009
            ],
            [
              21.91229361,
              66.04974694
            ],
            [
              21.91375134,
              66.04915885
            ],
            [
              21.91474072,
              66.04915769
            ],
            [
              21.91609136,
              66.04886517
            ],
            [
              21.91626021,
              66.04840486
            ],
            [
              21.91224275,
              66.04836732
            ],
            [
              21.9098959,
              66.04870338
            ],
            [
              21.90910751,
              66.04930311
            ],
            [
              21.90735343,
              66.04934091
            ],
            [
              21.9060411,
              66.05067959
            ],
            [
              21.90851565,
              66.05186199
            ],
            [
              21.90642558,
              66.05258635
            ],
            [
              21.90567573,
              66.05369545
            ],
            [
              21.90607242,
              66.0550934
            ],
            [
              21.90647805,
              66.05576877
            ],
            [
              21.90619675,
              66.05682367
            ],
            [
              21.90660003,
              66.05764582
            ],
            [
              21.90538027,
              66.05786605
            ],
            [
              21.90506257,
              66.05857752
            ],
            [
              21.90275955,
              66.05876483
            ],
            [
              21.90262679,
              66.05968016
            ],
            [
              21.90754495,
              66.05990456
            ],
            [
              21.91044629,
              66.06109141
            ],
            [
              21.91427121,
              66.06051883
            ],
            [
              21.91739014,
              66.05958187
            ],
            [
              21.91754406,
              66.05869981
            ],
            [
              21.91878089,
              66.05848819
            ],
            [
              21.91984545,
              66.05741949
            ],
            [
              21.92191076,
              66.05634967
            ],
            [
              21.92185151,
              66.05594352
            ]
          ]
        ]
      },
      "properties": {
        "feature_type": "beslut",
        "id": "BESLUT-162822",
        "soid": "NVR-2044033",
        "gid": 68856,
        "namn": "Abborrtjärnhuvudena",
        "typ": "NR",
        "status": "GALLANDE",
        "area_ha": 61.5,
        "beslut_dat": "2016-06-20",
        "lagakr_dat": "2016-07-11",
        "status_dbt": null,
        "_source_file": "Uppdragsgeometri (NVR-2044033, beslut 2016-06-20)"
      }
    }
  ]
}