{
  "type": "FeatureCollection",
  "features": [
    {
      "type": "Feature",
      "geometry": {
        "type": "Polygon",
        "coordinates": [
          [
            [
              13.041067,
              61.79349213
            ],
            [
              13.04205946,
              61.79321185
            ],
            [
              13.04260571,
              61.79142483
            ],
            [
              13.0398451,
              61.790512
            ],
            [
              13.03837191,
              61.79080671
            ],
            [
              13.03764395,
              61.79071967
            ],
            [
              13.03733686,
              61.79098745
            ],
            [
              13.03634102,
              61.79072033
            ],
            [
              13.03573338,
              61.79097561
            ],
            [
              13.03669041,
              61.79132481
            ],
            [
              13.03623234,
              61.7917815
            ],
            [
              13.03667953,
              61.792149
            ],
            [
              13.03633328,
              61.79222369
            ],
            [
              13.03434523,
              61.7913795
            ],
            [
              13.03473676,
              61.79094183
            ],
            [
              13.03477207,
              61.7909474
            ],
            [
              13.03502403,
              61.79095269
            ],
            [
              13.03521119,
              61.79098958
            ],
            [
              13.03542941,
              61.79098541
            ],
            [
              13.03560816,
              61.79095975
            ],
            [
              13.03558503,
              61.79084072
            ],
            [
              13.03430597,
              61.79075928
            ],
            [
              13.0343619,
              61.79037062
            ],
            [
              13.0349477,
              61.79027199
            ],
            [
              13.03464481,
              61.7898296
            ],
            [
              13.0347135,
              61.78960178
            ],
            [
              13.0337336,
              61.78929967
            ],
            [
              13.03291498,
              61.78937884
            ],
            [
              13.03289715,
              61.78966697
            ],
            [
              13.03153586,
              61.78968298
            ],
            [
              13.03149305,
              61.7890859
            ],
            [
              13.03087764,
              61.78827959
            ],
            [
              13.02954664,
              61.78754256
            ],
            [
              13.02955498,
              61.78698314
            ],
            [
              13.0302316,
              61.78621304
            ],
            [
              13.03067422,
              61.78535363
            ],
            [
              13.02995763,
              61.78506162
            ],
            [
              13.02902927,
              61.78410196
            ],
            [
              13.02882055,
              61.78365661
            ],
            [
              13.0285474,
              61.78341179
            ],
            [
              13.02546639,
              61.78589305
            ],
            [
              13.02442543,
              61.78566283
            ],
            [
              13.02273374,
              61.78544485
            ],
            [
              13.02150687,
              61.78513467
            ],
            [
              13.02050962,
              61.78604028
            ],
            [
              13.01979866,
              61.78707234
            ],
            [
              13.01918245,
              61.78759407
            ],
            [
              13.01831851,
              61.78908821
            ],
            [
              13.01947871,
              61.78995413
            ],
            [
              13.01894523,
              61.79102622
            ],
            [
              13.01898198,
              61.79305274
            ],
            [
              13.01899352,
              61.79358611
            ],
            [
              13.01910585,
              61.79410187
            ],
            [
              13.01952656,
              61.79424404
            ],
            [
              13.01950294,
              61.79433385
            ],
            [
              13.0199458,
              61.79441267
            ],
            [
              13.01963178,
              61.79490098
            ],
            [
              13.01980538,
              61.79492841
            ],
            [
              13.02012243,
              61.79500925
            ],
            [
              13.02186152,
              61.79591136
            ],
            [
              13.02220932,
              61.79609237
            ],
            [
              13.02241436,
              61.79618038
            ],
            [
              13.0228468,
              61.79629807
            ],
            [
              13.02329312,
              61.7963925
            ],
            [
              13.02461954,
              61.79667852
            ],
            [
              13.02518146,
              61.79680686
            ],
            [
              13.02561044,
              61.79692147
            ],
            [
              13.02876869,
              61.79715014
            ],
            [
              13.02949681,
              61.79697364
            ],
            [
              13.02858093,
              61.79649305
            ],
            [
              13.02789933,
              61.79585255
            ],
            [
              13.0272192,
              61.79564306
            ],
            [
              13.0265647,
              61.79490868
            ],
            [
              13.02673411,
              61.79458366
            ],
            [
              13.02833885,
              61.79452698
            ],
            [
              13.02765711,
              61.7939503
            ],
            [
              13.02683878,
              61.79392761
            ],
            [
              13.02772673,
              61.79211753
            ],
            [
              13.02936921,
              61.79227839
            ],
            [
              13.0297366,
              61.79257718
            ],
            [
              13.03000101,
              61.79232406
            ],
            [
              13.03032392,
              61.7924192
            ],
            [
              13.03046517,
              61.79280373
            ],
            [
              13.03154773,
              61.79312027
            ],
            [
              13.03307096,
              61.7931206
            ],
            [
              13.03326762,
              61.79387911
            ],
            [
              13.0340295,
              61.79400191
            ],
            [
              13.03392486,
              61.7941517
            ],
            [
              13.03469471,
              61.7944171
            ],
            [
              13.03479201,
              61.79488126
            ],
            [
              13.03394378,
              61.79521787
            ],
            [
              13.03374579,
              61.79576264
            ],
            [
              13.03262437,
              61.79613528
            ],
            [
              13.03116766,
              61.79621583
            ],
            [
              13.0309103,
              61.79638186
            ],
            [
              13.0314235,
              61.79676103
            ],
            [
              13.03100802,
              61.79701476
            ],
            [
              13.031802,
              61.79748461
            ],
            [
              13.03097662,
              61.79783187
            ],
            [
              13.03136231,
              61.79816404
            ],
            [
              13.03164479,
              61.79834298
            ],
            [
              13.03218307,
              61.79859315
            ],
            [
              13.03326693,
              61.79925852
            ],
            [
              13.03562547,
              61.79838945
            ],
            [
              13.03594878,
              61.79764653
            ],
            [
              13.03939911,
              61.79703595
            ],
            [
              13.04109378,
              61.79555132
            ],
            [
              13.04122179,
              61.79503759
            ],
            [
              13.041067,
              61.79349213
            ]
          ]
        ]
      },
      "properties": {
        "feature_type": "skyddsomrade",
        "id": "SKO-1200132",
        "soid": "NVR-2048018",
        "gid": 12128,
        "namn": "Ögan",
        "skyddstyp": "NR",
        "status": "UTREDNING",
        "area_ha": 107.34,
        "_source_file": "skyddsvärtområde",
        "omr_besk": "Ögan är ett stort naturskogsartat barrskogsbälte med ett blandat lövinslag i kantzonen mot den anslutande våtmarken. Skogen domineras av gran men i partier förekommer tall, asp, sälg och björk. Lundartad vegetation med bl.a. storrams och liljekonvalj förekommer på fuktig mark. I det mer öppna fjällbjörkbältet på kalfjällsbrynet finner man en artrik fjällflora med bland annat fjällklocka, fjällsippa och fjällnejlika. Sjön Ögan med omgivande myrar har ett rikt fågelliv med häckande änder, vadare och kustfåglar. Området är av stor betydelse för rekreation och friluftsliv i regionen.",
        "beslmyndig": "Länsstyrelsen i Dalarnas län",
        "forvaltare": "Länsstyrelsen i Dalarnas län",
        "geo_status": "Slutligt inmätt"
      }
    },
    {
      "type": "Feature",
      "geometry": {
        "type": "Polygon",
        "coordinates": [
          [
            [
              21.13335326,
              66.3694499
            ],
            [
              21.29260045,
              66.36307599
            ],
            [
              21.28100151,
              66.31689708
            ],
            [
              21.12204331,
              66.32325708
            ],
            [
              21.13335326,
              66.3694499
            ]
          ]
        ]
      },
      "properties": {
        "feature_type": "skyddsomrade",
        "id": "SKO-1201470",
        "soid": "NVR-2201159",
        "gid": 12423,
        "namn": "joel",
        "skyddstyp": "NR",
        "status": "UTREDNING",
        "area_ha": 3710.98,
        "_source_file": "skyddsvärtområde"
      }
    },
    {
      "type": "Feature",
      "geometry": {
        "type": "Polygon",
        "coordinates": [
          [
            [
              22.64296097,
              65.92849599
            ],
            [
              22.6516945,
              65.92663591
            ],
            [
              22.64706273,
              65.9217584
            ],
            [
              22.63849184,
              65.92169143
            ],
            [
              22.64296097,
              65.92849599
            ]
          ]
        ]
      },
      "properties": {
        "feature_type": "skyddsomrade",
        "id": "SKO-1201456",
        "soid": "NVR-2201139, NVR-2201140",
        "gid": 12358,
        "namn": "testosteron",
        "skyddstyp": "NR",
        "status": "UTREDNING",
        "area_ha": 27.79,
        "_source_file": "skyddsvärtområde"
      }
    },
    {
      "type": "Feature",
      "geometry": {
        "type": "Polygon",
        "coordinates": [
          [
            [
              21.6181408,
              66.2598813
            ],
            [
              21.64564245,
              66.26591331
            ],
            [
              21.65475471,
              66.25997805
            ],
            [
              21.65137084,
              66.24871402
            ],
            [
              21.64176678,
              66.24416769
            ],
            [
              21.6054449,
              66.24679271
            ],
            [
              21.6181408,
              66.2598813
            ]
          ]
        ]
      },
      "properties": {
        "feature_type": "skyddsomrade",
        "id": "SKO-1200116",
        "soid": "NVR-2044072, NVR-2201055, NVR-2201064, NVR-2201218",
        "gid": 12060,
        "namn": "Abborrtjärnbergshuvudet test koppling",
        "skyddstyp": "IF, NR",
        "status": "UTREDNING",
        "area_ha": 350.71,
        "_source_file": "skyddsvärtområde"
      }
    },
    {
      "type": "Feature",
      "geometry": {
        "type": "Polygon",
        "coordinates": [
          [
            [
              21.92185151,
              66.05594352
            ],
            [
              21.92279285,
              66.05508552
            ],
            [
              21.92121188,
              66.05469045
            ],
            [
              21.91944914,
              66.05500258
            ],
            [
              21.91763406,
              66.05565289
            ],
            [
              21.91658989,
              66.05554927
            ],
            [
              21.91727974,
              66.05430468
            ],
            [
              21.91549607,
              66.05406567
            ],
            [
              21.9150895,
              66.05437073
            ],
            [
              21.91369566,
              66.05433357
            ],
            [
              21.91351481,
              66.05524877
            ],
            [
              21.91249858,
              66.05556561
            ],
            [
              21.91202828,
              66.05554685
            ],
            [
              21.91269771,
              66.05397694
            ],
            [
              21.91385679,
              66.05346941
            ],
            [
              21.91369427,
              66.05235749
            ],
            [
              21.91466107,
              66.05199448
            ],
            [
              21.91384402,
              66.0509657
            ],
            [
              21.9125362,
              66.05086009
            ],
            [
              21.91229361,
              66.04974694
            ],
            [
              21.91375134,
              66.04915885
            ],
            [
              21.91474072,
              66.04915769
            ],
            [
              21.91609136,
              66.04886517
            ],
            [
              21.91626021,
              66.04840486
            ],
            [
              21.91224275,
              66.04836732
            ],
            [
              21.9098959,
              66.04870338
            ],
            [
              21.90910751,
              66.04930311
            ],
            [
              21.90735343,
              66.04934091
            ],
            [
              21.9060411,
              66.05067959
            ],
            [
              21.90851565,
              66.05186199
            ],
            [
              21.90642558,
              66.05258635
            ],
            [
              21.90567573,
              66.05369545
            ],
            [
              21.90607242,
              66.0550934
            ],
            [
              21.90647805,
              66.05576877
            ],
            [
              21.90619675,
              66.05682367
            ],
            [
              21.90660003,
              66.05764582
            ],
            [
              21.90538027,
              66.05786605
            ],
            [
              21.90506257,
              66.05857752
            ],
            [
              21.90275955,
              66.05876483
            ],
            [
              21.90262679,
              66.05968016
            ],
            [
              21.90754495,
              66.05990456
            ],
            [
              21.91044629,
              66.06109141
            ],
            [
              21.91427121,
              66.06051883
            ],
            [
              21.91739014,
              66.05958187
            ],
            [
              21.91754406,
              66.05869981
            ],
            [
              21.91878089,
              66.05848819
            ],
            [
              21.91984545,
              66.05741949
            ],
            [
              21.92191076,
              66.05634967
            ],
            [
              21.92185151,
              66.05594352
            ]
          ]
        ]
      },
      "properties": {
        "feature_type": "skyddsomrade",
        "id": "SKO-1200563",
        "soid": "NVR-2044033",
        "gid": 12222,
        "namn": "Abborrtjärnhuvudena",
        "skyddstyp": "NR",
        "status": "UTREDNING",
        "area_ha": 61.5,
        "_source_file": "skyddsvärtområde"
      }
    }
  ]
}